ONEWEB-0683             
1 56719U 23068K   24188.60389434 -.00000326  00000+0 -89934-3 0  9995
2 56719  87.9024  40.5836 0001573  91.7687 268.3624 13.15548573 55991
ONEWEB-0684             
1 56720U 23068L   24188.61181681 -.00000366  00000+0 -10073-2 0  9993
2 56720  87.9025  40.6583 0002413  44.3648 315.7675 13.15548224 55827
ONEWEB-0686             
1 56721U 23068M   24188.59609787  .00000104  00000+0  23761-3 0  9990
2 56721  87.9095  10.2903 0001712  85.7225 274.4102 13.16593035 58218
ONEWEB-0694             
1 56722U 23068N   24188.55575618  .00000054  00000+0  10793-3 0  9997
2 56722  87.9092  10.2172 0001538 103.3845 256.7458 13.16594893 58260
ONEWEB-0696             
1 56723U 23068P   24188.56904691  .00000118  00000+0  28054-3 0  9996
2 56723  87.9022  40.6411 0002056  80.7019 279.4344 13.15547422 55936
ONEWEB-0703             
1 56724U 23068Q   24188.57854549 -.00000143  00000+0 -41448-3 0  9996
2 56724  87.9023  40.6600 0002994  73.5860 286.5599 13.15547893 55824
